EKRAN 11                
1 14377U 83100A   26064.13358299 -.00000288  00000+0  00000+0 0  9999
2 14377   7.9893 305.2402 0004478 349.5629  10.3593  1.00314054 46332
INTELSAT 507            
1 14421U 83105A   26064.27777734 -.00000051  00000+0  00000+0 0  9996
2 14421  12.0940 331.8337 0003259  47.9319 141.2994  0.99689522136190
RADUGA 14               
1 14725U 84016A   26064.66866175 -.00000072  00000+0  00000+0 0  9999
2 14725   8.7703 311.4719 0000548 123.5447  40.0914  1.00297332117065
COSMOS 1540             
1 14783U 84022A   26064.66883509 -.00000078  00000+0  00000+0 0  9996
2 14783   9.5378 305.3602 0007670 300.5456 230.2235  1.00282432119986
COSMOS 1546             
1 14867U 84031A   26064.66970175 -.00000115  00000+0  00000+0 0  9997
2 14867   8.8755 312.1197 0025190  13.2535 155.4768  1.00257574 46334
STTW-T2                 
1 14899U 84035A   26064.60990147 -.00000330  00000+0  00000+0 0  9990
2 14899   9.6333 318.5469 0005636 196.6787   2.6612  1.00268370 46337
GORIZONT 9              
1 14940U 84041A   26064.67108843 -.00000198  00000+0  00000+0 0  9997
2 14940   8.9438 312.9916 0005797 295.6351 239.9909  1.00317985120909
ZHONGXING-5             
1 14985U 84049A   26060.22198520 -.00000307  00000+0  00000+0 0  9994
2 14985  14.3956 349.1328 0010447 253.4592 300.2580  0.99989893130223
RADUGA 15               
1 15057U 84063A   26064.60383479 -.00000330  00000+0  00000+0 0  9992
2 15057   8.9291 312.4570 0001894 249.8571 282.2491  1.00185806140067
GORIZONT 10             
1 15144U 84078A   26064.34043762  .00000104  00000+0  00000+0 0  9992
2 15144   9.0792 314.0372 0003819 340.4246 205.3861  1.00194703153535
HIMAWARI-3 (GMS-3)      
1 15152U 84080A   26063.91016990  .00000008  00000+0  00000+0 0  9992
2 15152  10.7841 324.3307 0004199 125.0781  56.9073  0.99836895151606
SL-12 R/B(2)            
1 15181U 84078F   26064.67316843 -.00000293  00000+0  00000+0 0  9992
2 15181   9.1627 314.4019 0020813 212.6218 332.9139  1.00349093121970
TELSTAR 302             
1 15237U 84093D   26063.63586117 -.00000189  00000+0  00000+0 0  9993
2 15237  14.1884 346.1435 0001159 247.8590 322.6034  0.99788014 45390
GALAXY 3 (G-3)          
1 15308U 84101A   26064.47892150  .00000074  00000+0  00000+0 0  9994
2 15308  14.1560 345.8805 0006795  14.6377 178.6417  0.99840849 45446
ZHONGXING-5R            
1 15385U 84114A   26064.00254991  .00000093  00000+0  00000+0 0  9998
2 15385  14.6865 352.8116 0006513  64.2921 144.6343  0.99757247125934
GORIZONT 11             
1 15484U 85007A   26063.01042352 -.00000179  00000+0  00000+0 0  9992
2 15484   9.3469 316.2050 0003244 293.6922 256.0722  1.00252844151577
ARABSAT-1A              
1 15560U 85015A   26064.72158531 -.00000355  00000+0  00000+0 0  9998
2 15560  11.9626 331.9502 0029877 240.7538 319.7487  1.00172465124977
