[{"OBJECT_NAME":"EKRAN 11","OBJECT_ID":"1983-100A","EPOCH":"2026-03-05T03:12:21.570336","MEAN_MOTION":1.00314054,"ECCENTRICITY":0.0004478,"INCLINATION":7.9893,"RA_OF_ASC_NODE":305.2402,"ARG_OF_PERICENTER":349.5629,"MEAN_ANOMALY":10.3593,"EPHEMERIS_TYPE":0,"CLASSIFICATION_TYPE":"U","NORAD_CAT_ID":14377,"ELEMENT_SET_NO":999,"REV_AT_EPOCH":4633,"BSTAR":0,"MEAN_MOTION_DOT":-2.88e-6,"MEAN_MOTION_DDOT":0},{"OBJECT_NAME":"INTELSAT 507","OBJECT_ID":"1983-105A","EPOCH":"2026-03-05T06:39:59.962176","MEAN_MOTION":0.99689522,"ECCENTRICITY":0.0003259,"INCLINATION":12.094,"RA_OF_ASC_NODE":331.8337,"ARG_OF_PERICENTER":47.9319,"MEAN_ANOMALY":141.2994,"EPHEMERIS_TYPE":0,"CLASSIFICATION_TYPE":"U","NORAD_CAT_ID":14421,"ELEMENT_SET_NO":999,"REV_AT_EPOCH":13619,"BSTAR":0,"MEAN_MOTION_DOT":-5.1e-7,"MEAN_MOTION_DDOT":0},{"OBJECT_NAME":"RADUGA 14","OBJECT_ID":"1984-016A","EPOCH":"2026-03-05T16:02:52.375200","MEAN_MOTION":1.00297332,"ECCENTRICITY":5.48e-5,"INCLINATION":8.7703,"RA_OF_ASC_NODE":311.4719,"ARG_OF_PERICENTER":123.5447,"MEAN_ANOMALY":40.0914,"EPHEMERIS_TYPE":0,"CLASSIFICATION_TYPE":"U","NORAD_CAT_ID":14725,"ELEMENT_SET_NO":999,"REV_AT_EPOCH":11706,"BSTAR":0,"MEAN_MOTION_DOT":-7.2e-7,"MEAN_MOTION_DDOT":0},{"OBJECT_NAME":"COSMOS 1540","OBJECT_ID":"1984-022A","EPOCH":"2026-03-05T16:03:07.351776","MEAN_MOTION":1.00282432,"ECCENTRICITY":0.000767,"INCLINATION":9.5378,"RA_OF_ASC_NODE":305.3602,"ARG_OF_PERICENTER":300.5456,"MEAN_ANOMALY":230.2235,"EPHEMERIS_TYPE":0,"CLASSIFICATION_TYPE":"U","NORAD_CAT_ID":14783,"ELEMENT_SET_NO":999,"REV_AT_EPOCH":11998,"BSTAR":0,"MEAN_MOTION_DOT":-7.8e-7,"MEAN_MOTION_DDOT":0},{"OBJECT_NAME":"COSMOS 1546","OBJECT_ID":"1984-031A","EPOCH":"2026-03-05T16:04:22.231200","MEAN_MOTION":1.00257574,"ECCENTRICITY":0.002519,"INCLINATION":8.8755,"RA_OF_ASC_NODE":312.1197,"ARG_OF_PERICENTER":13.2535,"MEAN_ANOMALY":155.4768,"EPHEMERIS_TYPE":0,"CLASSIFICATION_TYPE":"U","NORAD_CAT_ID":14867,"ELEMENT_SET_NO":999,"REV_AT_EPOCH":4633,"BSTAR":0,"MEAN_MOTION_DOT":-1.15e-6,"MEAN_MOTION_DDOT":0},{"OBJECT_NAME":"STTW-T2","OBJECT_ID":"1984-035A","EPOCH":"2026-03-05T14:38:15.487008","MEAN_MOTION":1.0026837,"ECCENTRICITY":0.0005636,"INCLINATION":9.6333,"RA_OF_ASC_NODE":318.5469,"ARG_OF_PERICENTER":196.6787,"MEAN_ANOMALY":2.6612,"EPHEMERIS_TYPE":0,"CLASSIFICATION_TYPE":"U","NORAD_CAT_ID":14899,"ELEMENT_SET_NO":999,"REV_AT_EPOCH":4633,"BSTAR":0,"MEAN_MOTION_DOT":-3.3e-6,"MEAN_MOTION_DDOT":0},{"OBJECT_NAME":"GORIZONT 9","OBJECT_ID":"1984-041A","EPOCH":"2026-03-05T16:06:22.040352","MEAN_MOTION":1.00317985,"ECCENTRICITY":0.0005797,"INCLINATION":8.9438,"RA_OF_ASC_NODE":312.9916,"ARG_OF_PERICENTER":295.6351,"MEAN_ANOMALY":239.9909,"EPHEMERIS_TYPE":0,"CLASSIFICATION_TYPE":"U","NORAD_CAT_ID":14940,"ELEMENT_SET_NO":999,"REV_AT_EPOCH":12090,"BSTAR":0,"MEAN_MOTION_DOT":-1.98e-6,"MEAN_MOTION_DDOT":0},{"OBJECT_NAME":"ZHONGXING-5","OBJECT_ID":"1984-049A","EPOCH":"2026-03-01T05:19:39.521280","MEAN_MOTION":0.99989893,"ECCENTRICITY":0.0010447,"INCLINATION":14.3956,"RA_OF_ASC_NODE":349.1328,"ARG_OF_PERICENTER":253.4592,"MEAN_ANOMALY":300.258,"EPHEMERIS_TYPE":0,"CLASSIFICATION_TYPE":"U","NORAD_CAT_ID":14985,"ELEMENT_SET_NO":999,"REV_AT_EPOCH":13022,"BSTAR":0,"MEAN_MOTION_DOT":-3.07e-6,"MEAN_MOTION_DDOT":0},{"OBJECT_NAME":"RADUGA 15","OBJECT_ID":"1984-063A","EPOCH":"2026-03-05T14:29:31.325856","MEAN_MOTION":1.00185806,"ECCENTRICITY":0.0001894,"INCLINATION":8.9291,"RA_OF_ASC_NODE":312.457,"ARG_OF_PERICENTER":249.8571,"MEAN_ANOMALY":282.2491,"EPHEMERIS_TYPE":0,"CLASSIFICATION_TYPE":"U","NORAD_CAT_ID":15057,"ELEMENT_SET_NO":999,"REV_AT_EPOCH":14006,"BSTAR":0,"MEAN_MOTION_DOT":-3.3e-6,"MEAN_MOTION_DDOT":0},{"OBJECT_NAME":"GORIZONT 10","OBJECT_ID":"1984-078A","EPOCH":"2026-03-05T08:10:13.810368","MEAN_MOTION":1.00194703,"ECCENTRICITY":0.0003819,"INCLINATION":9.0792,"RA_OF_ASC_NODE":314.0372,"ARG_OF_PERICENTER":340.4246,"MEAN_ANOMALY":205.3861,"EPHEMERIS_TYPE":0,"CLASSIFICATION_TYPE":"U","NORAD_CAT_ID":15144,"ELEMENT_SET_NO":999,"REV_AT_EPOCH":15353,"BSTAR":0,"MEAN_MOTION_DOT":1.04e-6,"MEAN_MOTION_DDOT":0},{"OBJECT_NAME":"HIMAWARI-3 (GMS-3)","OBJECT_ID":"1984-080A","EPOCH":"2026-03-04T21:50:38.679360","MEAN_MOTION":0.99836895,"ECCENTRICITY":0.00041992,"INCLINATION":10.7841,"RA_OF_ASC_NODE":324.3307,"ARG_OF_PERICENTER":125.0781,"MEAN_ANOMALY":56.9073,"EPHEMERIS_TYPE":0,"CLASSIFICATION_TYPE":"U","NORAD_CAT_ID":15152,"ELEMENT_SET_NO":999,"REV_AT_EPOCH":15160,"BSTAR":0,"MEAN_MOTION_DOT":8.0e-8,"MEAN_MOTION_DDOT":0},{"OBJECT_NAME":"SL-12 R/B(2)","OBJECT_ID":"1984-078F","EPOCH":"2026-03-05T16:09:21.752352","MEAN_MOTION":1.00349093,"ECCENTRICITY":0.0020813,"INCLINATION":9.1627,"RA_OF_ASC_NODE":314.4019,"ARG_OF_PERICENTER":212.6218,"MEAN_ANOMALY":332.9139,"EPHEMERIS_TYPE":0,"CLASSIFICATION_TYPE":"U","NORAD_CAT_ID":15181,"ELEMENT_SET_NO":999,"REV_AT_EPOCH":12197,"BSTAR":0,"MEAN_MOTION_DOT":-2.93e-6,"MEAN_MOTION_DDOT":0},{"OBJECT_NAME":"TELSTAR 302","OBJECT_ID":"1984-093D","EPOCH":"2026-03-04T15:15:38.405088","MEAN_MOTION":0.99788014,"ECCENTRICITY":0.00011597,"INCLINATION":14.1884,"RA_OF_ASC_NODE":346.1435,"ARG_OF_PERICENTER":247.859,"MEAN_ANOMALY":322.6034,"EPHEMERIS_TYPE":0,"CLASSIFICATION_TYPE":"U","NORAD_CAT_ID":15237,"ELEMENT_SET_NO":999,"REV_AT_EPOCH":4539,"BSTAR":0,"MEAN_MOTION_DOT":-1.89e-6,"MEAN_MOTION_DDOT":0},{"OBJECT_NAME":"GALAXY 3 (G-3)","OBJECT_ID":"1984-101A","EPOCH":"2026-03-05T11:29:38.817600","MEAN_MOTION":0.99840849,"ECCENTRICITY":0.0006795,"INCLINATION":14.156,"RA_OF_ASC_NODE":345.8805,"ARG_OF_PERICENTER":14.6377,"MEAN_ANOMALY":178.6417,"EPHEMERIS_TYPE":0,"CLASSIFICATION_TYPE":"U","NORAD_CAT_ID":15308,"ELEMENT_SET_NO":999,"REV_AT_EPOCH":4544,"BSTAR":0,"MEAN_MOTION_DOT":7.4e-7,"MEAN_MOTION_DDOT":0},{"OBJECT_NAME":"ZHONGXING-5R","OBJECT_ID":"1984-114A","EPOCH":"2026-03-05T00:03:40.312224","MEAN_MOTION":0.99757247,"ECCENTRICITY":0.00065133,"INCLINATION":14.6865,"RA_OF_ASC_NODE":352.8116,"ARG_OF_PERICENTER":64.2921,"MEAN_ANOMALY":144.6343,"EPHEMERIS_TYPE":0,"CLASSIFICATION_TYPE":"U","NORAD_CAT_ID":15385,"ELEMENT_SET_NO":999,"REV_AT_EPOCH":12593,"BSTAR":0,"MEAN_MOTION_DOT":9.3e-7,"MEAN_MOTION_DDOT":0},{"OBJECT_NAME":"GORIZONT 11","OBJECT_ID":"1985-007A","EPOCH":"2026-03-04T00:15:00.592128","MEAN_MOTION":1.00252844,"ECCENTRICITY":0.00032442,"INCLINATION":9.3469,"RA_OF_ASC_NODE":316.205,"ARG_OF_PERICENTER":293.6922,"MEAN_ANOMALY":256.0722,"EPHEMERIS_TYPE":0,"CLASSIFICATION_TYPE":"U","NORAD_CAT_ID":15484,"ELEMENT_SET_NO":999,"REV_AT_EPOCH":15157,"BSTAR":0,"MEAN_MOTION_DOT":-1.79e-6,"MEAN_MOTION_DDOT":0},{"OBJECT_NAME":"ARABSAT-1A","OBJECT_ID":"1985-015A","EPOCH":"2026-03-05T17:19:04.970784","MEAN_MOTION":1.00172465,"ECCENTRICITY":0.0029877,"INCLINATION":11.9626,"RA_OF_ASC_NODE":331.9502,"ARG_OF_PERICENTER":240.7538,"MEAN_ANOMALY":319.7487,"EPHEMERIS_TYPE":0,"CLASSIFICATION_TYPE":"U","NORAD_CAT_ID":15560,"ELEMENT_SET_NO":999,"REV_AT_EPOCH":12497,"BSTAR":0,"MEAN_MOTION_DOT":-3.55e-6,"MEAN_MOTION_DDOT":0}]
